[{"OBJECT_NAME":"STARLINK-33627","OBJECT_ID":"2025-035S","EPOCH":"2026-03-09T06:22:30.527904","MEAN_MOTION":15.2758309,"ECCENTRICITY":9.0e-5,"INCLINATION":42.9957,"RA_OF_ASC_NODE":149.5809,"ARG_OF_PERICENTER":209.9613,"MEAN_ANOMALY":150.1187,"EPHEMERIS_TYPE":0,"CLASSIFICATION_TYPE":"U","NORAD_CAT_ID":63068,"ELEMENT_SET_NO":999,"REV_AT_EPOCH":5965,"BSTAR":0.00084013245,"MEAN_MOTION_DOT":0.00022931,"MEAN_MOTION_DDOT":0},{"OBJECT_NAME":"FENGYUN 1C DEB","OBJECT_ID":"1999-025EGV","EPOCH":"2026-02-28T16:17:34.017216","MEAN_MOTION":14.9983724,"ECCENTRICITY":0.01801634,"INCLINATION":98.631,"RA_OF_ASC_NODE":214.8944,"ARG_OF_PERICENTER":42.5154,"MEAN_ANOMALY":318.9857,"EPHEMERIS_TYPE":0,"CLASSIFICATION_TYPE":"U","NORAD_CAT_ID":37427,"ELEMENT_SET_NO":999,"REV_AT_EPOCH":61490,"BSTAR":0.00040638516,"MEAN_MOTION_DOT":7.014e-5,"MEAN_MOTION_DDOT":0}]
